[{"OBJECT_NAME":"FLOCK 4BE-35","OBJECT_ID":"2024-149CU","EPOCH":"2026-03-14T22:58:26.635872","MEAN_MOTION":15.44812769,"ECCENTRICITY":0.00054668,"INCLINATION":97.3784,"RA_OF_ASC_NODE":157.2807,"ARG_OF_PERICENTER":245.8498,"MEAN_ANOMALY":114.2179,"EPHEMERIS_TYPE":0,"CLASSIFICATION_TYPE":"U","NORAD_CAT_ID":60558,"ELEMENT_SET_NO":999,"REV_AT_EPOCH":8781,"BSTAR":0.0024765436,"MEAN_MOTION_DOT":0.00117584,"MEAN_MOTION_DDOT":0},{"OBJECT_NAME":"FLOCK 4BE-5","OBJECT_ID":"2024-149CV","EPOCH":"2026-03-14T19:18:51.699456","MEAN_MOTION":15.37235898,"ECCENTRICITY":0.00025181,"INCLINATION":97.3877,"RA_OF_ASC_NODE":157.0957,"ARG_OF_PERICENTER":263.2021,"MEAN_ANOMALY":96.8937,"EPHEMERIS_TYPE":0,"CLASSIFICATION_TYPE":"U","NORAD_CAT_ID":60559,"ELEMENT_SET_NO":999,"REV_AT_EPOCH":8776,"BSTAR":0.00068660677,"MEAN_MOTION_DOT":0.00025012,"MEAN_MOTION_DDOT":0},{"OBJECT_NAME":"FLOCK 4BE-12","OBJECT_ID":"2024-149CW","EPOCH":"2026-03-14T17:02:07.901088","MEAN_MOTION":15.47994554,"ECCENTRICITY":0.00066768,"INCLINATION":97.3748,"RA_OF_ASC_NODE":157.7792,"ARG_OF_PERICENTER":250.5883,"MEAN_ANOMALY":109.4646,"EPHEMERIS_TYPE":0,"CLASSIFICATION_TYPE":"U","NORAD_CAT_ID":60560,"ELEMENT_SET_NO":999,"REV_AT_EPOCH":8784,"BSTAR":0.0029146802,"MEAN_MOTION_DOT":0.00155116,"MEAN_MOTION_DDOT":0},{"OBJECT_NAME":"FLOCK 4BE-3","OBJECT_ID":"2024-149CX","EPOCH":"2026-03-14T19:16:57.820800","MEAN_MOTION":15.38424775,"ECCENTRICITY":0.00034776,"INCLINATION":97.3741,"RA_OF_ASC_NODE":157.0175,"ARG_OF_PERICENTER":252.1568,"MEAN_ANOMALY":107.9298,"EPHEMERIS_TYPE":0,"CLASSIFICATION_TYPE":"U","NORAD_CAT_ID":60561,"ELEMENT_SET_NO":999,"REV_AT_EPOCH":8781,"BSTAR":0.00064711065,"MEAN_MOTION_DOT":0.00024494,"MEAN_MOTION_DDOT":0},{"OBJECT_NAME":"FLOCK 4BE-19","OBJECT_ID":"2024-149CZ","EPOCH":"2026-03-14T16:09:14.256288","MEAN_MOTION":15.40613641,"ECCENTRICITY":0.00033512,"INCLINATION":97.3778,"RA_OF_ASC_NODE":158.0104,"ARG_OF_PERICENTER":259.7967,"MEAN_ANOMALY":100.2901,"EPHEMERIS_TYPE":0,"CLASSIFICATION_TYPE":"U","NORAD_CAT_ID":60563,"ELEMENT_SET_NO":999,"REV_AT_EPOCH":8785,"BSTAR":0.00069162952,"MEAN_MOTION_DOT":0.00028144,"MEAN_MOTION_DDOT":0},{"OBJECT_NAME":"PELICAN-2","OBJECT_ID":"2025-009Y","EPOCH":"2026-03-14T17:29:05.538912","MEAN_MOTION":15.40346608,"ECCENTRICITY":0.00072843,"INCLINATION":97.4013,"RA_OF_ASC_NODE":164.0943,"ARG_OF_PERICENTER":196.3155,"MEAN_ANOMALY":163.7858,"EPHEMERIS_TYPE":0,"CLASSIFICATION_TYPE":"U","NORAD_CAT_ID":62631,"ELEMENT_SET_NO":999,"REV_AT_EPOCH":6501,"BSTAR":0.0027777731,"MEAN_MOTION_DOT":0.0011362,"MEAN_MOTION_DDOT":0},{"OBJECT_NAME":"PELICAN-3","OBJECT_ID":"2025-188A","EPOCH":"2026-03-14T17:47:49.766208","MEAN_MOTION":15.40651592,"ECCENTRICITY":0.00053659,"INCLINATION":97.223,"RA_OF_ASC_NODE":151.2295,"ARG_OF_PERICENTER":202.0005,"MEAN_ANOMALY":158.1012,"EPHEMERIS_TYPE":0,"CLASSIFICATION_TYPE":"U","NORAD_CAT_ID":65315,"ELEMENT_SET_NO":999,"REV_AT_EPOCH":3077,"BSTAR":0.001775199,"MEAN_MOTION_DOT":0.000729,"MEAN_MOTION_DDOT":0},{"OBJECT_NAME":"PELICAN-4","OBJECT_ID":"2025-188B","EPOCH":"2026-03-14T16:36:42.022656","MEAN_MOTION":15.40574914,"ECCENTRICITY":6.807e-5,"INCLINATION":97.2366,"RA_OF_ASC_NODE":151.286,"ARG_OF_PERICENTER":98.1452,"MEAN_ANOMALY":261.9872,"EPHEMERIS_TYPE":0,"CLASSIFICATION_TYPE":"U","NORAD_CAT_ID":65316,"ELEMENT_SET_NO":999,"REV_AT_EPOCH":3076,"BSTAR":0.00029755241,"MEAN_MOTION_DOT":0.0001202,"MEAN_MOTION_DDOT":0}]
