FLOCK 4BE-35            
1 60558U 24149CU  26073.95725273  .00117584  00000+0  24765-2 0  9993
2 60558  97.3784 157.2807 0005466 245.8498 114.2179 15.44812769 87811
FLOCK 4BE-5             
1 60559U 24149CV  26073.80476504  .00025012  00000+0  68661-3 0  9996
2 60559  97.3877 157.0957 0002518 263.2021  96.8937 15.37235898 87765
FLOCK 4BE-12            
1 60560U 24149CW  26073.70981367  .00155116  00000+0  29147-2 0  9999
2 60560  97.3748 157.7792 0006676 250.5883 109.4646 15.47994554 87841
FLOCK 4BE-3             
1 60561U 24149CX  26073.80344700  .00024494  00000+0  64711-3 0  9996
2 60561  97.3741 157.0175 0003477 252.1568 107.9298 15.38424775 87813
FLOCK 4BE-19            
1 60563U 24149CZ  26073.67308167  .00028144  00000+0  69163-3 0  9992
2 60563  97.3778 158.0104 0003351 259.7967 100.2901 15.40613641 87851
PELICAN-2               
1 62631U 25009Y   26073.72853633  .00113620  00000+0  27778-2 0  9994
2 62631  97.4013 164.0943 0007284 196.3155 163.7858 15.40346608 65019
PELICAN-3               
1 65315U 25188A   26073.74154822  .00072900  00000+0  17752-2 0  9996
2 65315  97.2230 151.2295 0005365 202.0005 158.1012 15.40651592 30771
PELICAN-4               
1 65316U 25188B   26073.69215304  .00012020  00000+0  29755-3 0  9998
2 65316  97.2366 151.2860 0000680  98.1452 261.9872 15.40574914 30763
